TIANMU-1 07             
1 57399U 23101A   26065.57454230  .00008352  00000+0  29795-3 0  9991
2 57399  97.2728 118.5929 0004609 142.4105 217.7458 15.29118809145964
STARLINK-31156          
1 58743U 24005R   26068.45950290  .00000176  00000+0  16221-4 0  9993
2 58743  42.9990 220.6172 0001002 291.5066  68.5679 15.26738284120464
